<?xml version="1.0" encoding="UTF-8"?>
<ndm xmlns:xsi="http://www.w3.org/2001/XMLSchema-instance" xsi:noNamespaceSchemaLocation="https://sanaregistry.org/r/ndmxml_unqualified/ndmxml-2.0.0-master-2.0.xsd">
<omm id="CCSDS_OMM_VERS" version="2.0">
<header><CREATION_DATE/><ORIGINATOR/></header><body><segment><metadata><OBJECT_NAME>GALAXY 15 (G-15)</OBJECT_NAME><OBJECT_ID>2005-041A</OBJECT_ID><CENTER_NAME>EARTH</CENTER_NAME><REF_FRAME>TEME</REF_FRAME><TIME_SYSTEM>UTC</TIME_SYSTEM><MEAN_ELEMENT_THEORY>SGP4</MEAN_ELEMENT_THEORY></metadata><data><meanElements><EPOCH>2026-06-16T17:11:09.038976</EPOCH><MEAN_MOTION>0.98943614</MEAN_MOTION><ECCENTRICITY>.0014354</ECCENTRICITY><INCLINATION>3.5359</INCLINATION><RA_OF_ASC_NODE>77.2731</RA_OF_ASC_NODE><ARG_OF_PERICENTER>137.8081</ARG_OF_PERICENTER><MEAN_ANOMALY>105.3728</MEAN_ANOMALY></meanElements><tleParameters><EPHEMERIS_TYPE>0</EPHEMERIS_TYPE><CLASSIFICATION_TYPE>U</CLASSIFICATION_TYPE><NORAD_CAT_ID>28884</NORAD_CAT_ID><ELEMENT_SET_NO>999</ELEMENT_SET_NO><REV_AT_EPOCH>7543</REV_AT_EPOCH><BSTAR>0</BSTAR><MEAN_MOTION_DOT>-.267E-5</MEAN_MOTION_DOT><MEAN_MOTION_DDOT>0</MEAN_MOTION_DDOT></tleParameters></data></segment></body></omm>
</ndm>
